NORAD_CAT_ID,OBJECT_NAME,OBJECT_TYPE,EPOCH,MEAN_MOTION,ECCENTRICITY,INCLINATION,RA_OF_ASC_NODE,ARG_OF_PERICENTER,MEAN_ANOMALY,BSTAR,MEAN_MOTION_DOT,MEAN_MOTION_DDOT,TLE_LINE0,TLE_LINE1,TLE_LINE2,SEMIMAJOR_AXIS,PERIOD,APOGEE,PERIGEE,DECAYED
53985.0,STARLINK-5147,PAYLOAD,2022-12-16 09:08:05,15.088204500000002,0.000136,53.2158,108.4756,78.3697,281.7448,-4.761e-05,-1.045e-05,0.0,0 STARLINK-5147,1 53985U 22125X   22350.38062462 -.00001045  00000-0 -47610-4 0  9999,2 53985  53.2158 108.4756 0001360  78.3697 281.7448 15.08820450 11499,6917.94,95.439,540.746,538.864,0.0
53985.0,STARLINK-5147,PAYLOAD,2022-12-16 13:54:15,15.08794578,0.0001929,53.2159,107.5831,63.7852,296.3338,0.00035732,5.396e-05,0.0,0 STARLINK-5147,1 53985U 22125X   22350.57934810  .00005396  00000-0  35732-3 0  9997,2 53985  53.2159 107.5831 0001929  63.7852 296.3338 15.08794578 11453,6918.019,95.44,541.219,538.55,0.0
53985.0,STARLINK-5147,PAYLOAD,2022-12-16 17:05:01,15.08801809,0.000197,53.2156,106.9877,64.751,295.3686,0.00033236,5e-05,0.0,0 STARLINK-5147,1 53985U 22125X   22350.71182758  .00005000  00000-0  33236-3 0  9998,2 53985  53.2156 106.9877 0001970  64.7510 295.3686 15.08801809 11474,6917.996999999999,95.44,541.225,538.499,0.0
53985.0,STARLINK-5147,PAYLOAD,2022-12-17 01:01:57,15.08825107,0.0001235,53.2156,105.5006,77.2776,282.8354,7.8498e-05,9.61e-06,0.0,0 STARLINK-5147,1 53985U 22125X   22351.04302230  .00000961  00000-0  78498-4 0  9995,2 53985  53.2156 105.5006 0001235  77.2776 282.8354 15.08825107 11593,6917.926,95.438,540.645,538.937,0.0
53985.0,STARLINK-5147,PAYLOAD,2022-12-17 08:58:52,15.08835101,0.0001343,53.2162,104.0151,79.5742,280.5401,2.9404e-05,1.8e-06,0.0,0 STARLINK-5147,1 53985U 22125X   22351.37422031  .00000180  00000-0  29404-4 0  9999,2 53985  53.2162 104.0151 0001343  79.5742 280.5401 15.08835101 11642,6917.895,95.438,540.689,538.831,0.0
53985.0,STARLINK-5147,PAYLOAD,2022-12-17 13:45:01,15.08839563,0.0001283,53.2156,103.1223,80.1782,279.9354,7.1041e-05,8.43e-06,0.0,0 STARLINK-5147,1 53985U 22125X   22351.57293626  .00000843  00000-0  71041-4 0  9997,2 53985  53.2156 103.1223 0001283  80.1782 279.9354 15.08839563 11601,6917.882,95.438,540.634,538.859,0.0
53985.0,STARLINK-5147,PAYLOAD,2022-12-17 15:20:24,15.08843317,0.0001189,53.2159,102.8254,72.7972,287.315,3.547e-05,2.77e-06,0.0,0 STARLINK-5147,1 53985U 22125X   22351.63917521  .00000277  00000-0  35470-4 0  9998,2 53985  53.2159 102.8254 0001189  72.7972 287.3150 15.08843317 11684,6917.87,95.437,540.558,538.913,0.0
53985.0,STARLINK-5147,PAYLOAD,2022-12-18 13:35:49,15.08829497,0.0001234,53.2166,98.6623,89.9164,270.197,8.591200000000001e-05,1.079e-05,0.0,0 STARLINK-5147,1 53985U 22125X   22352.56654461  .00001079  00000-0  85912-4 0  9999,2 53985  53.2166  98.6623 0001234  89.9164 270.1970 15.08829497 11759,6917.9119999999975,95.438,540.631,538.924,0.0
53985.0,STARLINK-5147,PAYLOAD,2022-12-19 07:05:03,15.0884049,0.0001309,53.2156,95.391,86.9237,273.1904,1.9132e-05,1.7e-07,0.0,0 STARLINK-5147,1 53985U 22125X   22353.29518154  .00000017  00000-0  19132-4 0  9990,2 53985  53.2156  95.3910 0001309  86.9237 273.1904 15.08840490 11938,6917.879,95.438,540.649,538.8380000000002,0.0
53985.0,STARLINK-5147,PAYLOAD,2022-12-20 13:17:22,15.08844116,0.0001203,53.2173,89.7384,90.9774,269.1356,7.8177e-05,9.57e-06,0.0,0 STARLINK-5147,1 53985U 22125X   22354.55373469  .00000957  00000-0  78177-4 0  9995,2 53985  53.2173  89.7384 0001203  90.9774 269.1356 15.08844116 12052,6917.868,95.437,540.565,538.901,0.0
53985.0,STARLINK-5147,PAYLOAD,2022-12-21 06:46:38,15.0882834,0.0001585999999999,53.2151,86.4699,79.6316,280.4855,-8.672299999999999e-05,-1.667e-05,0.0,0 STARLINK-5147,1 53985U 22125X   22355.28239235 -.00001667  00000-0 -86723-4 0  9995,2 53985  53.2151  86.4699 0001586  79.6316 280.4855 15.08828340 12232,6917.916,95.438,540.878,538.684,0.0
53985.0,STARLINK-5147,PAYLOAD,2022-12-21 13:08:10,15.088340400000002,0.0001097,53.2169,85.2802,84.7637,275.3481,-2.9616e-05,-7.59e-06,0.0,0 STARLINK-5147,1 53985U 22125X   22355.54734718 -.00000759  00000-0 -29616-4 0  9999,2 53985  53.2169  85.2802 0001097  84.7637 275.3481 15.08834040 12203,6917.899,95.438,540.5219999999998,539.005,0.0
53985.0,STARLINK-5147,PAYLOAD,2022-12-21 22:40:28,15.08851436,9.05e-05,53.217,83.4959,80.3838,279.7256,-1.6605e-05,-5.52e-06,0.0,0 STARLINK-5147,1 53985U 22125X   22355.94477441 -.00000552  00000-0 -16605-4 0  9995,2 53985  53.2170  83.4959 0000905  80.3838 279.7256 15.08851436 12330,6917.845,95.437,540.336,539.0840000000002,0.0
53985.0,STARLINK-5147,PAYLOAD,2022-12-22 12:58:57,15.08838418,0.0001094,53.2159,80.8202,84.4301,275.6816,-1.6666e-05,-5.53e-06,0.0,0 STARLINK-5147,1 53985U 22125X   22356.54094466 -.00000553  00000-0 -16666-4 0  9992,2 53985  53.2159  80.8202 0001094  84.4301 275.6816 15.08838418 12353,6917.885,95.438,540.507,538.993,0.0
53985.0,STARLINK-5147,PAYLOAD,2022-12-22 16:09:43,15.08844165,9.990000000000004e-05,53.217,80.2264,88.5358,271.5748,3.4775e-05,2.66e-06,0.0,0 STARLINK-5147,1 53985U 22125X   22356.67341889  .00000266  00000-0  34775-4 0  9990,2 53985  53.2170  80.2264 0000999  88.5358 271.5748 15.08844165 12443,6917.868,95.437,540.424,539.0419999999998,0.0
53985.0,STARLINK-5147,PAYLOAD,2022-12-23 06:28:12,15.08824744,0.0001128,53.2173,77.5489,90.0606,270.0516,9.0635e-05,1.154e-05,0.0,0 STARLINK-5147,1 53985U 22125X   22357.26959115  .00001154  00000-0  90635-4 0  9997,2 53985  53.2173  77.5489 0001128  90.0606 270.0516 15.08824744 12531,6917.927,95.439,540.572,539.012,0.0
53985.0,STARLINK-5147,PAYLOAD,2022-12-23 09:38:59,15.08827698,0.0001225,53.2177,76.9542,92.492,267.6213,-2.4734e-05,-6.81e-06,0.0,0 STARLINK-5147,1 53985U 22125X   22357.40207479 -.00000681  00000-0 -24734-4 0  9995,2 53985  53.2177  76.9542 0001225  92.4920 267.6213 15.08827698 12482,6917.918000000002,95.438,540.63,538.936,0.0
53985.0,STARLINK-5147,PAYLOAD,2022-12-23 16:00:31,15.08831427,0.0001155,53.2168,75.7643,85.0362,275.0762,9.2377e-06,-1.41e-06,0.0,0 STARLINK-5147,1 53985U 22125X   22357.66703259 -.00000141  00000-0  92377-5 0  9999,2 53985  53.2168  75.7643 0001155  85.0362 275.0762 15.08831427 12523,6917.906999999997,95.438,540.571,538.9730000000002,0.0
53985.0,STARLINK-5147,PAYLOAD,2022-12-23 22:22:03,15.08840613,0.0001139,53.2166,74.575,86.8798,273.2324,2.7881e-05,1.56e-06,0.0,0 STARLINK-5147,1 53985U 22125X   22357.93198714  .00000156  00000-0  27881-4 0  9995,2 53985  53.2166  74.5750 0001139  86.8798 273.2324 15.08840613 12634,6917.879,95.438,540.531,538.956,0.0
53985.0,STARLINK-5147,PAYLOAD,2022-12-24 17:26:40,15.08848509,0.0001236,53.2168,71.0064,91.1328,268.9806,8.8648e-05,1.124e-05,0.0,0 STARLINK-5147,1 53985U 22125X   22358.72685689  .00001124  00000-0  88648-4 0  9999,2 53985  53.2168  71.0064 0001236  91.1328 268.9806 15.08848509 12753,6917.854,95.437,540.5740000000002,538.864,0.0
53985.0,STARLINK-5147,PAYLOAD,2022-12-25 10:55:55,15.08835583,0.0001004,53.2151,67.7366,56.0225,304.0862,0.00017524,2.502e-05,0.0,0 STARLINK-5147,1 53985U 22125X   22359.45549922  .00002502  00000-0  17524-3 0  9994,2 53985  53.2151  67.7366 0001004  56.0225 304.0862 15.08835583 12865,6917.894,95.438,540.453,539.064,0.0
53985.0,STARLINK-5147,PAYLOAD,2022-12-25 12:31:19,15.08831017,0.0001055,53.2171,67.4386,88.06200000000004,272.0493,1.988e-05,2.9e-07,0.0,0 STARLINK-5147,1 53985U 22125X   22359.52174826  .00000029  00000-0  19880-4 0  9999,2 53985  53.2171  67.4386 0001055  88.0620 272.0493 15.08831017 12879,6917.908,95.438,540.503,539.043,0.0
53985.0,STARLINK-5147,PAYLOAD,2022-12-26 10:46:42,15.08846692,8.88e-05,53.2169,63.2762,77.5179,282.5912,-1.0763e-05,-4.59e-06,0.0,0 STARLINK-5147,1 53985U 22125X   22360.44909869 -.00000459  00000-0 -10763-4 0  9995,2 53985  53.2169  63.2762 0000888  77.5179 282.5912 15.08846692 13017,6917.86,95.437,540.339,539.111,0.0
53985.0,STARLINK-5147,PAYLOAD,2022-12-27 10:37:28,15.08847422,0.0001124,53.2183,58.8168,74.0406,286.071,5.3154e-05,5.58e-06,0.0,0 STARLINK-5147,1 53985U 22125X   22361.44269214  .00000558  00000-0  53154-4 0  9998,2 53985  53.2183  58.8168 0001124  74.0406 286.0710 15.08847422 13097,6917.858,95.437,540.5,538.945,0.0
53985.0,STARLINK-5147,PAYLOAD,2022-12-28 04:06:43,15.08842806,0.000131,53.2181,55.5468,70.6438,289.4695,8.8487e-06,-1.47e-06,0.0,0 STARLINK-5147,1 53985U 22125X   22362.17133567 -.00000147  00000-0  88487-5 0  9993,2 53985  53.2181  55.5468 0001310  70.6438 289.4695 15.08842806 13276,6917.871999999999,95.437,540.643,538.831,0.0
53985.0,STARLINK-5147,PAYLOAD,2022-12-29 10:19:04,15.08827043,0.0001418,53.2166,49.8932,84.676,275.4393,-0.0002421999999999,-4.139e-05,0.0,0 STARLINK-5147,1 53985U 22125X   22363.42991507 -.00004139  00000-0 -24220-3 0  9997,2 53985  53.2166  49.8932 0001418  84.6760 275.4393 15.08827043 13460,6917.92,95.438,540.766,538.804,0.0
53985.0,STARLINK-5147,PAYLOAD,2022-12-29 11:54:28,15.08825732,0.0001278,53.216,49.596,78.4139,281.6997,-0.00025645,-4.365e-05,0.0,0 STARLINK-5147,1 53985U 22125X   22363.49615794 -.00004365  00000-0 -25645-3 0  9998,2 53985  53.2160  49.5960 0001278  78.4139 281.6997 15.08825732 13403,6917.924,95.438,540.673,538.905,0.0
53985.0,STARLINK-5147,PAYLOAD,2022-12-30 10:09:51,15.08829431,0.0001264,53.2164,45.4336,71.3679,288.745,-1.1763e-06,-3.07e-06,0.0,0 STARLINK-5147,1 53985U 22125X   22364.42351612 -.00000307  00000-0 -11763-5 0  9998,2 53985  53.2164  45.4336 0001264  71.3679 288.7450 15.08829431 13610,6917.913000000001,95.438,540.6519999999998,538.903,0.0
53985.0,STARLINK-5147,PAYLOAD,2022-12-30 11:45:14,15.08830708,0.0001291,53.2164,45.1362,71.1824,288.9308,3.662e-06,-2.3e-06,0.0,0 STARLINK-5147,1 53985U 22125X   22364.48975575 -.00000230  00000-0  36620-5 0  9997,2 53985  53.2164  45.1362 0001291  71.1824 288.9308 15.08830708 13552,6917.909000000002,95.438,540.6669999999998,538.881,0.0
